NORAD_CAT_ID,OBJECT_NAME,OBJECT_TYPE,EPOCH,MEAN_MOTION,ECCENTRICITY,INCLINATION,RA_OF_ASC_NODE,ARG_OF_PERICENTER,MEAN_ANOMALY,BSTAR,MEAN_MOTION_DOT,MEAN_MOTION_DDOT,TLE_LINE0,TLE_LINE1,TLE_LINE2,SEMIMAJOR_AXIS,PERIOD,APOGEE,PERIGEE,DECAYED
53008.0,STARLINK-4275,PAYLOAD,2023-04-21 02:36:47,15.0883307,0.0001398,53.2156,143.828,93.4525,266.6627,2.6066e-05,1.27e-06,0.0,0 STARLINK-4275,1 53008U 22076Y   23111.10888839  .00000127  00000-0  26066-4 0  9990,2 53008  53.2156 143.8280 0001398  93.4525 266.6627 15.08833070 44261,6917.902,95.438,540.734,538.799,0.0
53008.0,STARLINK-4275,PAYLOAD,2023-04-21 08:58:20,15.08832208,0.0001404,53.2156,142.6385,93.1123,267.003,1.5707e-05,-3.8e-07,0.0,0 STARLINK-4275,1 53008U 22076Y   23111.37385035 -.00000038  00000-0  15707-4 0  9991,2 53008  53.2156 142.6385 0001404  93.1123 267.0030 15.08832208 43830,6917.904,95.438,540.74,538.798,0.0
53008.0,STARLINK-4275,PAYLOAD,2023-04-21 18:30:39,15.08832025,0.0001278,53.2151,140.8544,91.3294,268.7844,1.0732e-05,-1.17e-06,0.0,0 STARLINK-4275,1 53008U 22076Y   23111.77129210 -.00000117  00000-0  10732-4 0  9997,2 53008  53.2151 140.8544 0001278  91.3294 268.7844 15.08832025 43894,6917.905,95.438,540.654,538.886,0.0
53008.0,STARLINK-4275,PAYLOAD,2023-04-22 00:52:11,15.08840615,0.0001181,53.2151,139.6637,88.7296,271.3831,8.3224e-05,1.037e-05,0.0,0 STARLINK-4275,1 53008U 22076Y   23112.03624398  .00001037  00000-0  83224-4 0  9991,2 53008  53.2151 139.6637 0001181  88.7296 271.3831 15.08840615 44406,6917.879,95.438,540.561,538.927,0.0
53008.0,STARLINK-4275,PAYLOAD,2023-04-22 18:21:25,15.08839741,0.0001212,53.2153,136.3927,87.7747,272.3384,0.00011274,1.507e-05,0.0,0 STARLINK-4275,1 53008U 22076Y   23112.76488321  .00001507  00000-0  11274-3 0  9992,2 53008  53.2153 136.3927 0001212  87.7747 272.3384 15.08839741 44041,6917.881,95.438,540.585,538.908,0.0
53008.0,STARLINK-4275,PAYLOAD,2023-04-23 10:15:18,15.08827742,0.0001299,53.2159,133.4199,90.5991,269.515,-4.0714e-06,-3.53e-06,0.0,0 STARLINK-4275,1 53008U 22076Y   23113.42729753 -.00000353  00000-0 -40714-5 0  9996,2 53008  53.2159 133.4199 0001299  90.5991 269.5150 15.08827742 44614,6917.918,95.438,540.681,538.884,0.0
53008.0,STARLINK-4275,PAYLOAD,2023-04-24 10:06:04,15.08849481,0.0001425,53.2155,128.9595,89.1966,270.9189,9.3869e-05,1.207e-05,0.0,0 STARLINK-4275,1 53008U 22076Y   23114.42088326  .00001207  00000-0  93869-4 0  9996,2 53008  53.2155 128.9595 0001425  89.1966 270.9189 15.08849481 44292,6917.851,95.437,540.702,538.731,0.0
53008.0,STARLINK-4275,PAYLOAD,2023-04-25 09:56:52,15.08835964,0.0001501,53.2164,124.4958,83.3908,276.7255,0.00010889,1.445e-05,0.0,0 STARLINK-4275,1 53008U 22076Y   23115.41449212  .00001445  00000-0  10889-3 0  9995,2 53008  53.2164 124.4958 0001501  83.3908 276.7255 15.08835964 44911,6917.893,95.438,540.796,538.719,0.0
53008.0,STARLINK-4275,PAYLOAD,2023-04-26 09:47:39,15.08839663,0.0001418,53.2153,120.0369,81.83,278.2853,3.7827e-05,3.14e-06,0.0,0 STARLINK-4275,1 53008U 22076Y   23116.40809216  .00000314  00000-0  37827-4 0  9995,2 53008  53.2153 120.0369 0001418  81.8300 278.2853 15.08839663 44598,6917.881,95.438,540.727,538.765,0.0
53008.0,STARLINK-4275,PAYLOAD,2023-04-26 17:44:34,15.08841307,0.0001429,53.2153,118.5503,81.2411,278.8743,4.7528e-05,4.69e-06,0.0,0 STARLINK-4275,1 53008U 22076Y   23116.73929064  .00000469  00000-0  47528-4 0  9995,2 53008  53.2153 118.5503 0001429  81.2411 278.8743 15.08841307 44647,6917.876,95.437,540.73,538.753,0.0
53008.0,STARLINK-4275,PAYLOAD,2023-04-27 09:38:25,15.08844723,0.0001398,53.2157,115.5754,85.2469,274.8683,8.436e-05,1.055e-05,0.0,0 STARLINK-4275,1 53008U 22076Y   23117.40168606  .00001055  00000-0  84360-4 0  9994,2 53008  53.2157 115.5754 0001398  85.2469 274.8683 15.08844723 44743,6917.866,95.437,540.698,538.764,0.0
53008.0,STARLINK-4275,PAYLOAD,2023-04-28 04:43:03,15.08840209,0.0001349,53.2153,112.0071,82.6203,277.4942,3.3783e-05,2.5e-06,0.0,0 STARLINK-4275,1 53008U 22076Y   23118.19657003  .00000250  00000-0  33783-4 0  9994,2 53008  53.2153 112.0071 0001349  82.6203 277.4942 15.08840209 45334,6917.88,95.438,540.678,538.812,0.0
53008.0,STARLINK-4275,PAYLOAD,2023-04-28 06:18:26,15.08841204,0.0001382,53.2157,111.7088,87.794,272.3211,4.7223e-05,4.64e-06,0.0,0 STARLINK-4275,1 53008U 22076Y   23118.26280863  .00000464  00000-0  47223-4 0  9999,2 53008  53.2157 111.7088 0001382  87.7940 272.3211 15.08841204 44870,6917.877,95.437,540.698,538.786,0.0
53008.0,STARLINK-4275,PAYLOAD,2023-04-29 06:09:13,15.08844871,0.0001354,53.2158,107.2502,86.1253,273.9894,4.3198e-05,4e-06,0.0,0 STARLINK-4275,1 53008U 22076Y   23119.25640537  .00000400  00000-0  43198-4 0  9994,2 53008  53.2158 107.2502 0001354  86.1253 273.9894 15.08844871 45497,6917.866,95.437,540.667,538.794,0.0
53008.0,STARLINK-4275,PAYLOAD,2023-04-29 23:38:28,15.08835501,0.0001492,53.2167,103.9845,104.8634,255.2524,-5.0611e-06,-3.69e-06,0.0,0 STARLINK-4275,1 53008U 22076Y   23119.98505399 -.00000369  00000-0 -50611-5 0  9995,2 53008  53.2167 103.9845 0001492 104.8634 255.2524 15.08835501 45600,6917.894,95.438,540.791,538.727,0.0
53008.0,STARLINK-4275,PAYLOAD,2023-04-30 07:35:24,15.08837518,0.0001403,53.2166,102.4961,100.2443,259.8708,2.9341e-06,-2.41e-06,0.0,0 STARLINK-4275,1 53008U 22076Y   23120.31625321 -.00000241  00000-0  29341-5 0  9996,2 53008  53.2166 102.4961 0001403 100.2443 259.8708 15.08837518 45189,6917.888,95.438,540.724,538.782,0.0
53008.0,STARLINK-4275,PAYLOAD,2023-05-01 04:15:25,15.08831267,0.0001433,53.2174,98.6304,103.6902,256.4249,-5.1174e-05,-1.102e-05,0.0,0 STARLINK-4275,1 53008U 22076Y   23121.17738308 -.00001102  00000-0 -51174-4 0  9997,2 53008  53.2174  98.6304 0001433 103.6902 256.4249 15.08831267 45789,6917.907,95.438,540.763,538.781,0.0
53008.0,STARLINK-4275,PAYLOAD,2023-05-01 07:26:12,15.08831209,0.0001392,53.2172,98.0351,101.6367,258.4782,-5.3011e-05,-1.131e-05,0.0,0 STARLINK-4275,1 53008U 22076Y   23121.30986377 -.00001131  00000-0 -53011-4 0  9997,2 53008  53.2172  98.0351 0001392 101.6367 258.4782 15.08831209 45331,6917.907,95.438,540.735,538.809,0.0
53008.0,STARLINK-4275,PAYLOAD,2023-05-02 04:06:12,15.08841484,0.0001296,53.2168,94.1665,85.6195,274.4945,0.00010041,1.311e-05,0.0,0 STARLINK-4275,1 53008U 22076Y   23122.17097512  .00001311  00000-0  10041-3 0  9990,2 53008  53.2168  94.1665 0001296  85.6195 274.4945 15.08841484 45935,6917.876,95.437,540.637,538.844,0.0
53008.0,STARLINK-4275,PAYLOAD,2023-05-02 07:16:58,15.08843667,0.0001342,53.2171,93.5703,84.8461,275.2684,0.00011818,1.594e-05,0.0,0 STARLINK-4275,1 53008U 22076Y   23122.30345321  .00001594  00000-0  11818-3 0  9995,2 53008  53.2171  93.5703 0001342  84.8461 275.2684 15.08843667 45488,6917.869,95.437,540.663,538.806,0.0
53008.0,STARLINK-4275,PAYLOAD,2023-05-02 21:35:27,15.08836783,0.000129,53.2161,90.8962,81.7005,278.4134,8.0177e-05,9.88e-06,0.0,0 STARLINK-4275,1 53008U 22076Y   23122.89962002  .00000988  00000-0  80177-4 0  9991,2 53008  53.2161  90.8962 0001290  81.7005 278.4134 15.08836783 45572,6917.89,95.438,540.648,538.863,0.0
53008.0,STARLINK-4275,PAYLOAD,2023-05-03 03:56:59,15.0883638,0.0001199,53.2158,89.7055,86.664,273.4489,6.9137e-05,8.13e-06,0.0,0 STARLINK-4275,1 53008U 22076Y   23123.16458084  .00000813  00000-0  69137-4 0  9992,2 53008  53.2158  89.7055 0001199  86.6640 273.4489 15.08836380 46083,6917.891,95.438,540.586,538.927,0.0
53008.0,STARLINK-4275,PAYLOAD,2023-05-03 07:07:45,15.08839301,0.000126,53.2163,89.1105,86.9058,273.2078,9.6602e-05,1.25e-05,0.0,0 STARLINK-4275,1 53008U 22076Y   23123.29705880  .00001250  00000-0  96602-4 0  9998,2 53008  53.2163  89.1105 0001260  86.9058 273.2078 15.08839301 45632,6917.883,95.438,540.619,538.876,0.0
53008.0,STARLINK-4275,PAYLOAD,2023-05-03 21:26:14,15.08842242,0.0001285,53.216,86.4331,90.2196,269.8943,-4.6911e-05,-1.034e-05,0.0,0 STARLINK-4275,1 53008U 22076Y   23123.89322232 -.00001034  00000-0 -46911-4 0  9990,2 53008  53.2160  86.4331 0001285  90.2196 269.8943 15.08842242 45728,6917.874,95.437,540.627,538.85,0.0
53008.0,STARLINK-4275,PAYLOAD,2023-05-04 06:58:32,15.08852709,0.000136,53.2159,84.6492,87.7496,272.3652,-8.4783e-05,-1.637e-05,0.0,0 STARLINK-4275,1 53008U 22076Y   23124.29065604 -.00001637  00000-0 -84783-4 0  9990,2 53008  53.2159  84.6492 0001360  87.7496 272.3652 15.08852709 46256,6917.842,95.437,540.647,538.766,0.0
53008.0,STARLINK-4275,PAYLOAD,2023-05-05 03:38:33,15.08845257,0.0001298,53.2165,80.7824,93.3195,266.7946,4.0592e-05,3.58e-06,0.0,0 STARLINK-4275,1 53008U 22076Y   23125.15177572  .00000358  00000-0  40592-4 0  9991,2 53008  53.2165  80.7824 0001298  93.3195 266.7946 15.08845257 46385,6917.864,95.437,540.627,538.831,0.0
53008.0,STARLINK-4275,PAYLOAD,2023-05-05 21:07:48,15.08837701,0.000125,53.2171,77.514,89.4615,270.652,3.3111e-05,2.39e-06,0.0,0 STARLINK-4275,1 53008U 22076Y   23125.88042109  .00000239  00000-0  33111-4 0  9995,2 53008  53.2171  77.5140 0001250  89.4615 270.6520 15.08837701 46026,6917.887,95.438,540.617,538.888,0.0
53008.0,STARLINK-4275,PAYLOAD,2023-05-06 03:29:20,15.08840746,0.0001221,53.2169,76.3232,93.1099,267.0032,7.3971e-05,8.9e-06,0.0,0 STARLINK-4275,1 53008U 22076Y   23126.14537868  .00000890  00000-0  73971-4 0  9997,2 53008  53.2169  76.3232 0001221  93.1099 267.0032 15.08840746 46535,6917.878,95.438,540.588,538.898,0.0
53008.0,STARLINK-4275,PAYLOAD,2023-05-06 06:40:06,15.08844564,0.0001155,53.2169,75.7282,91.3029,268.8095,5.0433e-05,5.15e-06,0.0,0 STARLINK-4275,1 53008U 22076Y   23126.27785667  .00000515  00000-0  50433-4 0  9995,2 53008  53.2169  75.7282 0001155  91.3029 268.8095 15.08844564 46082,6917.866,95.437,540.53,538.932,0.0
53008.0,STARLINK-4275,PAYLOAD,2023-05-07 06:30:53,15.08850227,0.0001139,53.2163,71.2694,93.8683,266.244,6.5964e-05,7.62e-06,0.0,0 STARLINK-4275,1 53008U 22076Y   23127.27145212  .00000762  00000-0  65964-4 0  9991,2 53008  53.2163  71.2694 0001139  93.8683 266.2440 15.08850227 46707,6917.849,95.437,540.502,538.926,0.0
